{"type": "FeatureCollection", "features": [ {"type": "Feature", "properties": {"norad_id": 30758, "name": "FENGYUN 1C DEB", "group": "fengyun-1c-debris", "lat": -0.3831930272567448, "lon": 99.0645167633055, "alt_km": 812.4100084048159, "timestamp": "2025-12-06T09:34:17.192370+00:00", "meta": {"OBJECT_NAME": "FENGYUN 1C DEB", "OBJECT_ID": "1999-025ATU", "EPOCH": "2025-12-05T13:31:16.254048", "MEAN_MOTION": 14.1706397, "ECCENTRICITY": 0.00386252, "INCLINATION": 99.0187, "RA_OF_ASC_NODE": 98.1567, "ARG_OF_PERICENTER": 24.3019, "MEAN_ANOMALY": 36.0815, "EPHEMERIS_TYPE": 0, "CLASSIFICATION_TYPE": "U", "NORAD_CAT_ID": 30758, "ELEMENT_SET_NO": 999, "REV_AT_EPOCH": 96389, "BSTAR": 0.0020716709, "MEAN_MOTION_DOT": 4.155e-05, "MEAN_MOTION_DDOT": 0}, "tle": {"line1": "1 30758U 99025ATU 25339.56338257  .00004155  00000+0  20717-2 0  9992", "line2": "2 30758  99.0187  98.1567 0038625  24.3019  36.0815 14.17063970963894"}}, "geometry": {"type": "Point", "coordinates": [99.0645167633055, -0.3831930272567448]}}, {"type": "Feature", "properties": {"norad_id": 30759, "name": "FENGYUN 1C DEB", "group": "fengyun-1c-debris", "lat": -69.9614650147187, "lon": 114.04674545497959, "alt_km": 720.574313601348, "timestamp": "2025-12-06T09:34:17.192379+00:00", "meta": {"OBJECT_NAME": "FENGYUN 1C DEB", "OBJECT_ID": "1999-025ATV", "EPOCH": "2025-12-05T19:37:52.362624", "MEAN_MOTION": 14.54281957, "ECCENTRICITY": 0.00094893, "INCLINATION": 99.2566, "RA_OF_ASC_NODE": 86.8446, "ARG_OF_PERICENTER": 184.762, "MEAN_ANOMALY": 303.7809, "EPHEMERIS_TYPE": 0, "CLASSIFICATION_TYPE": "U", "NORAD_CAT_ID": 30759, "ELEMENT_SET_NO": 999, "REV_AT_EPOCH": 97554, "BSTAR": 0.0049892973, "MEAN_MOTION_DOT": 0.00021183, "MEAN_MOTION_DDOT": 0}, "tle": {"line1": "1 30759U 99025ATV 25339.81796716  .00021183  00000+0  49893-2 0  9995", "line2": "2 30759  99.2566  86.8446 0009489 184.7620 303.7809 14.54281957975543"}}, "geometry": {"type": "Point", "coordinates": [114.04674545497959, -69.9614650147187]}}, {"type": "Feature", "properties": {"norad_id": 30760, "name": "FENGYUN 1C DEB", "group": "fengyun-1c-debris", "lat": 8.242818845923436, "lon": -24.03671091504691, "alt_km": 839.4012656066752, "timestamp": "2025-12-06T09:34:17.192390+00:00", "meta": {"OBJECT_NAME": "FENGYUN 1C DEB", "OBJECT_ID": "1999-025ATW", "EPOCH": "2025-12-05T23:16:43.701600", "MEAN_MOTION": 14.05172628, "ECCENTRICITY": 0.00531739, "INCLINATION": 98.822, "RA_OF_ASC_NODE": 336.8353, "ARG_OF_PERICENTER": 2.6104, "MEAN_ANOMALY": 357.5332, "EPHEMERIS_TYPE": 0, "CLASSIFICATION_TYPE": "U", "NORAD_CAT_ID": 30760, "ELEMENT_SET_NO": 999, "REV_AT_EPOCH": 96127, "BSTAR": 0.00031913183, "MEAN_MOTION_DOT": 4.79e-06, "MEAN_MOTION_DDOT": 0}, "tle": {"line1": "1 30760U 99025ATW 25339.96995025  .00000479  00000+0  31913-3 0  9997", "line2": "2 30760  98.8220 336.8353 0053173   2.6104 357.5332 14.05172628961279"}}, "geometry": {"type": "Point", "coordinates": [-24.03671091504691, 8.242818845923436]}}, {"type": "Feature", "properties": {"norad_id": 30761, "name": "FENGYUN 1C DEB", "group": "fengyun-1c-debris", "lat": 38.33348489605157, "lon": 93.40807303177428, "alt_km": 829.3599333214324, "timestamp": "2025-12-06T09:34:17.192400+00:00", "meta": {"OBJECT_NAME": "FENGYUN 1C DEB", "OBJECT_ID": "1999-025ATX", "EPOCH": "2025-12-05T17:51:44.546112", "MEAN_MOTION": 14.3570268, "ECCENTRICITY": 0.00850027, "INCLINATION": 98.9655, "RA_OF_ASC_NODE": 265.5571, "ARG_OF_PERICENTER": 334.4329, "MEAN_ANOMALY": 25.2663, "EPHEMERIS_TYPE": 0, "CLASSIFICATION_TYPE": "U", "NORAD_CAT_ID": 30761, "ELEMENT_SET_NO": 999, "REV_AT_EPOCH": 97641, "BSTAR": 0.0021741267, "MEAN_MOTION_DOT": 6.5e-05, "MEAN_MOTION_DDOT": 0}, "tle": {"line1": "1 30761U 99025ATX 25339.74426558  .00006500  00000+0  21741-2 0  9992", "line2": "2 30761  98.9655 265.5571 0085002 334.4329  25.2663 14.35702680976412"}}, "geometry": {"type": "Point", "coordinates": [93.40807303177428, 38.33348489605157]}}, {"type": "Feature", "properties": {"norad_id": 30762, "name": "FENGYUN 1C DEB", "group": "fengyun-1c-debris", "lat": 80.18721365956868, "lon": -144.02575344149722, "alt_km": 1004.8020603815703, "timestamp": "2025-12-06T09:34:17.192409+00:00", "meta": {"OBJECT_NAME": "FENGYUN 1C DEB", "OBJECT_ID": "1999-025ATY", "EPOCH": "2025-12-04T05:40:57.309888", "MEAN_MOTION": 13.98068438, "ECCENTRICITY": 0.0198095, "INCLINATION": 98.8735, "RA_OF_ASC_NODE": 329.299, "ARG_OF_PERICENTER": 318.6469, "MEAN_ANOMALY": 58.4401, "EPHEMERIS_TYPE": 0, "CLASSIFICATION_TYPE": "U", "NORAD_CAT_ID": 30762, "ELEMENT_SET_NO": 999, "REV_AT_EPOCH": 95519, "BSTAR": 0.00093732, "MEAN_MOTION_DOT": 1.531e-05, "MEAN_MOTION_DDOT": 0}, "tle": {"line1": "1 30762U 99025ATY 25338.23677442  .00001531  00000+0  93732-3 0  9995", "line2": "2 30762  98.8735 329.2990 0198095 318.6469  58.4401 13.98068438955194"}}, "geometry": {"type": "Point", "coordinates": [-144.02575344149722, 80.18721365956868]}}, {"type": "Feature", "properties": {"norad_id": 30763, "name": "FENGYUN 1C DEB", "group": "fengyun-1c-debris", "lat": -22.28003611632249, "lon": 54.97507840852952, "alt_km": 685.9984616991696, "timestamp": "2025-12-06T09:34:17.192420+00:00", "meta": {"OBJECT_NAME": "FENGYUN 1C DEB", "OBJECT_ID": "1999-025ATZ", "EPOCH": "2025-12-05T22:24:58.719744", "MEAN_MOTION": 14.60678252, "ECCENTRICITY": 0.0022472, "INCLINATION": 98.8934, "RA_OF_ASC_NODE": 50.798, "ARG_OF_PERICENTER": 289.0453, "MEAN_ANOMALY": 125.5968, "EPHEMERIS_TYPE": 0, "CLASSIFICATION_TYPE": "U", "NORAD_CAT_ID": 30763, "ELEMENT_SET_NO": 999, "REV_AT_EPOCH": 97045, "BSTAR": 0.006173604, "MEAN_MOTION_DOT": 0.00030251, "MEAN_MOTION_DDOT": 0}, "tle": {"line1": "1 30763U 99025ATZ 25339.93401296  .00030251  00000+0  61736-2 0  9995", "line2": "2 30763  98.8934  50.7980 0022472 289.0453 125.5968 14.60678252970451"}}, "geometry": {"type": "Point", "coordinates": [54.97507840852952, -22.28003611632249]}}, {"type": "Feature", "properties": {"norad_id": 30764, "name": "FENGYUN 1C DEB", "group": "fengyun-1c-debris", "lat": 77.38242154758288, "lon": 173.58523346305745, "alt_km": 475.04136244534584, "timestamp": "2025-12-06T09:34:17.192430+00:00", "meta": {"OBJECT_NAME": "FENGYUN 1C DEB", "OBJECT_ID": "1999-025AUA", "EPOCH": "2025-12-05T20:33:56.842560", "MEAN_MOTION": 15.28476588, "ECCENTRICITY": 0.00759098, "INCLINATION": 98.7779, "RA_OF_ASC_NODE": 309.2936, "ARG_OF_PERICENTER": 193.6952, "MEAN_ANOMALY": 166.2225, "EPHEMERIS_TYPE": 0, "CLASSIFICATION_TYPE": "U", "NORAD_CAT_ID": 30764, "ELEMENT_SET_NO": 999, "REV_AT_EPOCH": 1117, "BSTAR": 0.0016121434, "MEAN_MOTION_DOT": 0.00048875, "MEAN_MOTION_DDOT": 0}, "tle": {"line1": "1 30764U 99025AUA 25339.85690790  .00048875  00000+0  16121-2 0  9995", "line2": "2 30764  98.7779 309.2936 0075909 193.6952 166.2225 15.28476588 11174"}}, "geometry": {"type": "Point", "coordinates": [173.58523346305745, 77.38242154758288]}}, {"type": "Feature", "properties": {"norad_id": 30765, "name": "FENGYUN 1C DEB", "group": "fengyun-1c-debris", "lat": -80.89836551177626, "lon": 131.55809241842675, "alt_km": 813.305333339089, "timestamp": "2025-12-06T09:34:17.192440+00:00", "meta": {"OBJECT_NAME": "FENGYUN 1C DEB", "OBJECT_ID": "1999-025AUB", "EPOCH": "2025-12-05T21:16:24.611808", "MEAN_MOTION": 14.14677855, "ECCENTRICITY": 0.0067923, "INCLINATION": 98.7884, "RA_OF_ASC_NODE": 25.9908, "ARG_OF_PERICENTER": 228.5509, "MEAN_ANOMALY": 310.3972, "EPHEMERIS_TYPE": 0, "CLASSIFICATION_TYPE": "U", "NORAD_CAT_ID": 30765, "ELEMENT_SET_NO": 999, "REV_AT_EPOCH": 96725, "BSTAR": 0.0016121627, "MEAN_MOTION_DOT": 3.128e-05, "MEAN_MOTION_DDOT": 0}, "tle": {"line1": "1 30765U 99025AUB 25339.88639597  .00003128  00000+0  16122-2 0  9990", "line2": "2 30765  98.7884  25.9908 0067923 228.5509 310.3972 14.14677855967250"}}, "geometry": {"type": "Point", "coordinates": [131.55809241842675, -80.89836551177626]}}, {"type": "Feature", "properties": {"norad_id": 30766, "name": "FENGYUN 1C DEB", "group": "fengyun-1c-debris", "lat": -78.57712807592938, "lon": 111.9613582102317, "alt_km": 928.1380803560178, "timestamp": "2025-12-06T09:34:17.192450+00:00", "meta": {"OBJECT_NAME": "FENGYUN 1C DEB", "OBJECT_ID": "1999-025AUC", "EPOCH": "2025-11-29T06:02:29.152320", "MEAN_MOTION": 14.0947949, "ECCENTRICITY": 0.0083655, "INCLINATION": 98.6728, "RA_OF_ASC_NODE": 334.1388, "ARG_OF_PERICENTER": 112.2766, "MEAN_ANOMALY": 264.9384, "EPHEMERIS_TYPE": 0, "CLASSIFICATION_TYPE": "U", "NORAD_CAT_ID": 30766, "ELEMENT_SET_NO": 999, "REV_AT_EPOCH": 62607, "BSTAR": 0.00061885465, "MEAN_MOTION_DOT": 1.075e-05, "MEAN_MOTION_DDOT": 0}, "tle": {"line1": "1 30766U 99025AUC 25333.25172630  .00001075  00000+0  61885-3 0  9992", "line2": "2 30766  98.6728 334.1388 0083655 112.2766 264.9384 14.09479490626070"}}, "geometry": {"type": "Point", "coordinates": [111.9613582102317, -78.57712807592938]}}, {"type": "Feature", "properties": {"norad_id": 30768, "name": "FENGYUN 1C DEB", "group": "fengyun-1c-debris", "lat": 6.765508006654283, "lon": 68.9892747199709, "alt_km": 741.9953700770211, "timestamp": "2025-12-06T09:34:17.192460+00:00", "meta": {"OBJECT_NAME": "FENGYUN 1C DEB", "OBJECT_ID": "1999-025AUE", "EPOCH": "2025-12-05T12:34:39.036288", "MEAN_MOTION": 14.47719958, "ECCENTRICITY": 0.00258594, "INCLINATION": 98.6195, "RA_OF_ASC_NODE": 69.1291, "ARG_OF_PERICENTER": 121.9482, "MEAN_ANOMALY": 8.8845, "EPHEMERIS_TYPE": 0, "CLASSIFICATION_TYPE": "U", "NORAD_CAT_ID": 30768, "ELEMENT_SET_NO": 999, "REV_AT_EPOCH": 97766, "BSTAR": 0.0043429413, "MEAN_MOTION_DOT": 0.00016091, "MEAN_MOTION_DDOT": 0}, "tle": {"line1": "1 30768U 99025AUE 25339.52406292  .00016091  00000+0  43429-2 0  9991", "line2": "2 30768  98.6195  69.1291 0025859 121.9482   8.8845 14.47719958977661"}}, "geometry": {"type": "Point", "coordinates": [68.9892747199709, 6.765508006654283]}}]}